,id,postalCode,latitude,longitude,stationName,Borough
0,72,10019,40.76727216,-73.99392888,W 52 St & 11 Ave,Manhattan
1,173,10019,40.76064679,-73.98442659,Broadway & W 49 St,Manhattan
2,281,10019,40.7643971,-73.97371465,Grand Army Plaza & Central Park S,Manhattan
3,352,10019,40.76340613,-73.97722479,W 56 St & 6 Ave,Manhattan
4,422,10019,40.770513,-73.988038,W 59 St & 10 Ave,Manhattan
5,423,10019,40.76584941,-73.98690506,W 54 St & 9 Ave,Manhattan
6,447,10019,40.76370739,-73.9851615,8 Ave & W 52 St,Manhattan
7,449,10019,40.76461837,-73.98789473,W 52 St & 9 Ave,Manhattan
8,450,10019,40.76227205,-73.98788205,W 49 St & 8 Ave,Manhattan
9,457,10019,40.76695317,-73.98169333,Broadway & W 58 St,Manhattan
10,468,10019,40.7652654,-73.98192338,Broadway & W 55 St,Manhattan
11,469,10019,40.76344058,-73.98268129,Broadway & W 53 St,Manhattan
12,480,10019,40.76669671,-73.99061728,W 53 St & 10 Ave,Manhattan
13,500,10019,40.76228826,-73.98336183,Broadway & W 51 St,Manhattan
14,510,10019,40.7606597,-73.98042047,W 51 St & 6 Ave,Manhattan
15,513,10019,40.768254,-73.988639,W 56 St & 10 Ave,Manhattan
16,530,10019,40.771522,-73.990541,11 Ave & W 59 St,Manhattan
17,2006,10019,40.76590936,-73.97634151,Central Park S & 6 Ave,Manhattan
18,79,10013,40.71911552,-74.00666661,Franklin St & W Broadway,Manhattan
19,146,10013,40.71625008,-74.0091059,Hudson St & Reade St,Manhattan
20,248,10013,40.72185379,-74.00771779,Laight St & Hudson St,Manhattan
21,249,10013,40.71870987,-74.0090009,Harrison St & Hudson St,Manhattan
22,257,10013,40.71939226,-74.00247214,Lispenard St & Broadway,Manhattan
23,263,10013,40.71729,-73.996375,Elizabeth St & Hester St,Manhattan
24,268,10013,40.71910537,-73.99973337,Howard St & Centre St,Manhattan
25,276,10013,40.71748752,-74.0104554,Duane St & Greenwich St,Manhattan
26,320,10013,40.717571,-74.005549,Leonard St & Church St,Manhattan
27,328,10013,40.72405549,-74.00965965,Watts St & Greenwich St,Manhattan
28,329,10013,40.72043411,-74.01020609,Greenwich St & N Moore St,Manhattan
29,355,10013,40.71602118,-73.99974372,Bayard St & Baxter St,Manhattan
30,377,10013,40.72243797,-74.00566443,6 Ave & Canal St,Manhattan
31,2004,10013,40.724399,-74.004704,6 Ave & Broome St,Manhattan
32,2010,10013,40.72165481,-74.00234737,Grand St & Greene St,Manhattan
33,82,10038,40.71117416,-74.00016545,St James Pl & Pearl St,Manhattan
34,224,10038,40.71146364,-74.00552427,Spruce St & Nassau St,Manhattan
35,264,10038,40.70706456,-74.00731853,Maiden Ln & Pearl St,Manhattan
36,279,10038,40.707873,-74.00167,Peck Slip & Front St,Manhattan
37,306,10038,40.70823502,-74.00530063,Cliff St & Fulton St,Manhattan
38,308,10038,40.71307916,-73.99851193,St James Pl & Oliver St,Manhattan
39,315,10038,40.70355377,-74.00670227,South St & Gouverneur Ln,Manhattan
40,316,10038,40.70955958,-74.00653609,Fulton St & William St,Manhattan
41,376,10038,40.70862144,-74.00722156,John St & William St,Manhattan
42,83,11217,40.68382604,-73.97632328,Atlantic Ave & Fort Greene Pl,Brooklyn
43,243,11217,40.688226,-73.979382,Fulton St & Rockwell Pl,Brooklyn
44,274,11217,40.68691865,-73.976682,Lafayette Ave & Fort Greene Pl,Brooklyn
45,298,11217,40.68683208,-73.9796772,3 Ave & Schermerhorn St,Brooklyn
46,353,11217,40.68539567,-73.97431458,S Portland Ave & Hanson Pl,Brooklyn
47,467,11217,40.68312489,-73.97895137,Dean St & 4 Ave,Brooklyn
48,3222,11217,40.6851595999,-73.9771136641,Hanson Pl & St Felix St,Brooklyn
49,116,10011,40.74177603,-74.00149746,W 17 St & 8 Ave,Manhattan
50,168,10011,40.73971301,-73.99456405,W 18 St & 6 Ave,Manhattan
51,212,10011,40.74334935,-74.00681753,W 16 St & The High Line,Manhattan
52,223,10011,40.73781509,-73.99994661,W 13 St & 7 Ave,Manhattan
53,225,10011,40.74195138,-74.00803013,W 14 St & The High Line,Manhattan
54,252,10011,40.73226398,-73.99852205,MacDougal St & Washington Sq,Manhattan
55,253,10011,40.73543934,-73.99453948,W 13 St & 5 Ave,Manhattan
56,254,10011,40.73532427,-73.99800419,W 11 St & 6 Ave,Manhattan
57,334,10011,40.74238787,-73.99726235,W 20 St & 7 Ave,Manhattan
58,345,10011,40.73649403,-73.99704374,W 13 St & 6 Ave,Manhattan
59,369,10011,40.73224119,-74.00026394,Washington Pl & 6 Ave,Manhattan
60,383,10011,40.735238,-74.000271,Greenwich Ave & Charles St,Manhattan
61,434,10011,40.74317449,-74.00366443,9 Ave & W 18 St,Manhattan
62,435,10011,40.74173969,-73.99415556,W 21 St & 6 Ave,Manhattan
63,446,10011,40.74487634,-73.99529885,W 24 St & 7 Ave,Manhattan
64,453,10011,40.74475148,-73.99915362,W 22 St & 8 Ave,Manhattan
65,459,10011,40.746745,-74.007756,W 20 St & 11 Ave,Manhattan
66,462,10011,40.74691959,-74.00451887,W 22 St & 10 Ave,Manhattan
67,463,10011,40.74206539,-74.00443172,9 Ave & W 16 St,Manhattan
68,470,10011,40.74345335,-74.00004031,W 20 St & 8 Ave,Manhattan
69,482,10011,40.73935542,-73.99931783,W 15 St & 7 Ave,Manhattan
70,509,10011,40.7454973,-74.00197139,9 Ave & W 22 St,Manhattan
71,119,11205,40.69608941,-73.97803415,Park Ave & St Edwards St,Brooklyn
72,242,11205,40.697787,-73.973736,Carlton Ave & Flushing Ave,Brooklyn
73,244,11205,40.69196035,-73.96536851,Willoughby Ave & Hall St,Brooklyn
74,258,11205,40.68940747,-73.96885458,DeKalb Ave & Vanderbilt Ave,Brooklyn
75,270,11205,40.69308257,-73.97178913,Adelphi St & Myrtle Ave,Brooklyn
76,313,11205,40.69610226,-73.96751037,Washington Ave & Park Ave,Brooklyn
77,343,11205,40.69794,-73.96986848,Clinton Ave & Flushing Ave,Brooklyn
78,354,11205,40.69363137,-73.96223558,Emerson Pl & Myrtle Ave,Brooklyn
79,366,11205,40.693261,-73.968896,Clinton Ave & Myrtle Ave,Brooklyn
80,372,11205,40.694528,-73.958089,Franklin Ave & Myrtle Ave,Brooklyn
81,373,11205,40.69331716,-73.95381995,Willoughby Ave & Walworth St,Brooklyn
82,409,11205,40.6906495,-73.95643107,DeKalb Ave & Skillman St,Brooklyn
83,419,11205,40.69580705,-73.97355569,Carlton Ave & Park Ave,Brooklyn
84,420,11205,40.68764484,-73.96968902,Clermont Ave & Lafayette Ave,Brooklyn
85,421,11205,40.69573398,-73.97129668,Clermont Ave & Park Ave,Brooklyn
86,2001,11205,40.699773,-73.979927,Sands St & Navy St,Brooklyn
87,3063,11205,40.69527008,-73.95238108,Nostrand Ave & Myrtle Ave,Brooklyn
88,120,11238,40.68676793,-73.95928168,Lexington Ave & Classon Ave,Brooklyn
89,275,11238,40.68650065,-73.96563307,Washington Ave & Greene Ave,Brooklyn
90,289,11238,40.6845683,-73.95881081,Monroe St & Classon Ave,Brooklyn
91,364,11238,40.68900443,-73.96023854,Lafayette Ave & Classon Ave,Brooklyn
92,365,11238,40.68223166,-73.9614583,Fulton St & Grand Ave,Brooklyn
93,384,11238,40.683048,-73.964915,Fulton St & Washington Ave,Brooklyn
94,396,11238,40.680342423,-73.9557689392,Lefferts Pl & Franklin Ave,Brooklyn
95,397,11238,40.68415748,-73.96922273,Fulton St & Clermont Ave,Brooklyn
96,399,11238,40.68851534,-73.9647628,Lafayette Ave & St James Pl,Brooklyn
97,416,11238,40.68753406,-73.97265183,Cumberland St & Lafayette Ave,Brooklyn
98,3049,11238,40.68488,-73.96304,Cambridge Pl & Gates Ave,Brooklyn
99,127,10014,40.73172428,-74.00674436,Barrow St & Hudson St,Manhattan
100,238,10014,40.7361967,-74.00859207,Bank St & Washington St,Manhattan
101,247,10014,40.73535398,-74.00483091,Perry St & Bleecker St,Manhattan
102,284,10014,40.7390169121,-74.0026376103,Greenwich Ave & 8 Ave,Manhattan
103,346,10014,40.73652889,-74.00618026,Bank St & Hudson St,Manhattan
104,347,10014,40.728846,-74.008591,Greenwich St & W Houston St,Manhattan
105,358,10014,40.73291553,-74.00711384,Christopher St & Greenwich St,Manhattan
106,368,10014,40.73038599,-74.00214988,Carmine St & 6 Ave,Manhattan
107,380,10014,40.73401143,-74.00293877,W 4 St & 7 Ave S,Manhattan
108,405,10014,40.739323,-74.008119,Washington St & Gansevoort St,Manhattan
109,3224,10014,40.739973541,-74.005138725,W 13 St & Hudson St,Manhattan
110,128,10012,40.72710258,-74.00297088,MacDougal St & Prince St,Manhattan
111,151,10012,40.7221037867,-73.9972490072,Cleveland Pl & Spring St,Manhattan
112,161,10012,40.72917025,-73.99810231,LaGuardia Pl & W 3 St,Manhattan
113,229,10012,40.72743423,-73.99379025,Great Jones St,Manhattan
114,250,10012,40.72456089,-73.99565293,Lafayette St & Jersey St,Manhattan
115,251,10012,40.72317958,-73.99480012,Mott St & Prince St,Manhattan
116,303,10012,40.72362738,-73.99949601,Mercer St & Spring St,Manhattan
117,336,10012,40.73047747,-73.99906065,Sullivan St & Washington Sq,Manhattan
118,348,10012,40.72490985,-74.00154702,W Broadway & Spring St,Manhattan
119,375,10012,40.72679454,-73.99695094,Mercer St & Bleecker St,Manhattan
120,137,10022,40.761628,-73.972924,E 56 St & Madison Ave,Manhattan
121,305,10022,40.76095756,-73.96724467,E 58 St & 3 Ave,Manhattan
122,367,10022,40.75828065,-73.97069431,E 53 St & Lexington Ave,Manhattan
123,385,10022,40.75797322,-73.96603308,E 55 St & 2 Ave,Manhattan
124,441,10022,40.756014,-73.967416,E 52 St & 2 Ave,Manhattan
125,454,10022,40.75455731,-73.96592976,E 51 St & 1 Ave,Manhattan
126,456,10022,40.7597108,-73.97402311,E 53 St & Madison Ave,Manhattan
127,522,10022,40.75714758,-73.97207836,E 51 St & Lexington Ave,Manhattan
128,2023,10022,40.75968085,-73.97031366,E 55 St & Lexington Ave,Manhattan
129,3132,10022,40.76350532,-73.97109243,E 59 St & Madison Ave,Manhattan
130,3223,10022,40.7589965596,-73.9686539769,E 55 St & 3 Ave,Manhattan
131,143,11201,40.69239502,-73.99337909,Clinton St & Joralemon St,Brooklyn
132,144,11201,40.69839895,-73.98068914,Nassau St & Navy St,Brooklyn
133,157,11201,40.69089272,-73.99612349,Henry St & Atlantic Ave,Brooklyn
134,216,11201,40.70037867,-73.99548059,Columbia Heights & Cranberry St,Brooklyn
135,217,11201,40.70277159,-73.99383605,Old Fulton St,Brooklyn
136,218,11201,40.69028437,-73.98707105,Gallatin Pl & Livingston St,Brooklyn
137,232,11201,40.69597683,-73.99014892,Cadman Plaza E & Tillary St,Brooklyn
138,233,11201,40.6947570136,-73.9905273914,Cadman Plaza W & Pierrepont St,Brooklyn
139,239,11201,40.69196566,-73.9813018,Willoughby St & Fleet St,Brooklyn
140,241,11201,40.68981035,-73.97493121,DeKalb Ave & S Portland Ave,Brooklyn
141,245,11201,40.69327018,-73.97703874,Myrtle Ave & St Edwards St,Brooklyn
142,261,11201,40.69474881,-73.98362464,Johnson St & Gold St,Brooklyn
143,262,11201,40.6917823,-73.9737299,Washington Park,Brooklyn
144,278,11201,40.69766564,-73.98476437,Concord St & Bridge St,Brooklyn
145,310,11201,40.68926942,-73.98912867,State St & Smith St,Brooklyn
146,314,11201,40.69383,-73.990539,Cadman Plaza West & Montague St,Brooklyn
147,321,11201,40.69991755,-73.98971773,Cadman Plaza E & Red Cross Pl,Brooklyn
148,322,11201,40.696192,-73.991218,Clinton St & Tillary St,Brooklyn
149,323,11201,40.69236178,-73.98631746,Lawrence St & Willoughby St,Brooklyn
150,324,11201,40.689888,-73.981013,DeKalb Ave & Hudson Ave,Brooklyn
151,390,11201,40.69221589,-73.9842844,Duffield St & Willoughby St,Brooklyn
152,391,11201,40.69760127,-73.99344559,Clark St & Henry St,Brooklyn
153,392,11201,40.695065,-73.987167,Jay St & Tech Pl,Brooklyn
154,395,11201,40.68807003,-73.98410637,Bond St & Schermerhorn St,Brooklyn
155,398,11201,40.69165183,-73.9999786,Atlantic Ave & Furman St,Brooklyn
156,406,11201,40.69512845,-73.99595065,Hicks St & Montague St,Brooklyn
157,407,11201,40.700469,-73.991454,Henry St & Poplar St,Brooklyn
158,414,11201,40.70281858,-73.98765762,Pearl St & Anchorage Pl,Brooklyn
159,418,11201,40.70224,-73.982578,Front St & Gold St,Brooklyn
160,430,11201,40.7014851,-73.98656928,York St & Jay St,Brooklyn
161,2000,11201,40.70255088,-73.98940236,Front St & Washington St,Brooklyn
162,3180,11201,40.69878,-73.99712,Brooklyn Bridge Park - Pier 2,Brooklyn
163,3232,11201,40.6896218879,-73.9830426872,Bond St & Fulton St,Brooklyn
164,147,10007,40.71542197,-74.01121978,Greenwich St & Warren St,Manhattan
165,152,10007,40.71473993,-74.00910627,Warren St & Church St,Manhattan
166,309,10007,40.7149787,-74.013012,Murray St & West St,Manhattan
167,330,10007,40.71450451,-74.00562789,Reade St & Broadway,Manhattan
168,387,10007,40.71273266,-74.0046073,Centre St & Chambers St,Manhattan
169,417,10007,40.71291224,-74.01020234,Barclay St & Church St,Manhattan
170,150,10009,40.7208736,-73.98085795,E 2 St & Avenue C,Manhattan
171,266,10009,40.72368361,-73.97574813,Avenue D & E 8 St,Manhattan
172,301,10009,40.72217444,-73.98368779,E 2 St & Avenue B,Manhattan
173,302,10009,40.72082834,-73.97793172,Avenue D & E 3 St,Manhattan
174,317,10009,40.72453734,-73.98185424,E 6 St & Avenue B,Manhattan
175,339,10009,40.72580614,-73.97422494,Avenue D & E 12 St,Manhattan
176,393,10009,40.72299208,-73.97995466,E 5 St & Avenue C,Manhattan
177,394,10009,40.72521311,-73.97768752,E 9 St & Avenue C,Manhattan
178,411,10009,40.72228087,-73.97668709,E 6 St & Avenue D,Manhattan
179,432,10009,40.72621788,-73.98379855,E 7 St & Avenue A,Manhattan
180,433,10009,40.72955361,-73.98057249,E 13 St & Avenue A,Manhattan
181,445,10009,40.72740794,-73.98142006,E 10 St & Avenue A,Manhattan
182,504,10009,40.73221853,-73.98165557,1 Ave & E 15 St,Manhattan
183,511,10009,40.72938685,-73.97772429,E 14 St & Avenue B,Manhattan
184,160,10016,40.748238,-73.978311,E 37 St & Lexington Ave,Manhattan
185,167,10016,40.7489006,-73.97604882,E 39 St & 3 Ave,Manhattan
186,472,10016,40.7457121,-73.98194829,E 32 St & Park Ave,Manhattan
187,474,10016,40.7451677,-73.98683077,5 Ave & E 29 St,Manhattan
188,476,10016,40.74394314,-73.97966069,E 31 St & 3 Ave,Manhattan
189,501,10016,40.744219,-73.97121214,FDR Drive & E 35 St,Manhattan
190,518,10016,40.74780373,-73.9734419,E 39 St & 2 Ave,Manhattan
191,526,10016,40.74765947,-73.98490707,E 33 St & 5 Ave,Manhattan
192,527,10016,40.744023,-73.976056,E 33 St & 2 Ave,Manhattan
193,528,10016,40.74290902,-73.97706058,2 Ave & E 31 St,Manhattan
194,536,10016,40.74144387,-73.97536082,1 Ave & E 30 St,Manhattan
195,540,10016,40.7431155538,-73.9821535349,Lexington Ave & E 29 St,Manhattan
196,546,10016,40.74444921,-73.98303529,E 30 St & Park Ave S,Manhattan
197,2012,10016,40.739445,-73.976806,E 27 St & 1 Ave,Manhattan
198,3234,10016,40.7515936845,-73.9804315567,E 40 St & Madison Ave,Manhattan
199,164,10017,40.75323098,-73.97032517,E 47 St & 2 Ave,Manhattan
200,228,10017,40.7546011026,-73.971878855,E 48 St & 3 Ave,Manhattan
201,440,10017,40.75255434,-73.97282625,E 45 St & 3 Ave,Manhattan
202,455,10017,40.75001986,-73.96905301,1 Ave & E 44 St,Manhattan
203,516,10017,40.75206862,-73.96784384,E 47 St & 1 Ave,Manhattan
204,2017,10017,40.75022392,-73.97121414,E 43 St & 2 Ave,Manhattan
205,3233,10017,40.7572456791,-73.9780591428,E 48 St & 5 Ave,Manhattan
206,3235,10017,40.7521652806,-73.979921937,E 41 St & Madison Ave,Manhattan
207,174,10010,40.7381765,-73.97738662,E 25 St & 1 Ave,Manhattan
208,402,10010,40.7403432,-73.98955109,Broadway & E 22 St,Manhattan
209,444,10010,40.7423543,-73.98915076,Broadway & W 24 St,Manhattan
210,461,10010,40.73587678,-73.98205027,E 20 St & 2 Ave,Manhattan
211,466,10010,40.74395411,-73.99144871,W 25 St & 6 Ave,Manhattan
212,487,10010,40.73314259,-73.97573881,E 20 St & FDR Drive,Manhattan
213,491,10010,40.74096374,-73.98602213,E 24 St & Park Ave S,Manhattan
214,507,10010,40.73912601,-73.97973776,E 25 St & 2 Ave,Manhattan
215,537,10010,40.74025878,-73.98409214,Lexington Ave & E 24 St,Manhattan
216,545,10010,40.736502,-73.97809472,E 23 St & 1 Ave,Manhattan
217,195,10005,40.70905623,-74.01043382,Liberty St & Broadway,Manhattan
218,337,10005,40.7037992,-74.00838676,Old Slip & Front St,Manhattan
219,351,10005,40.70530954,-74.00612572,Front St & Maiden Ln,Manhattan
220,360,10005,40.70717936,-74.00887308,William St & Pine St,Manhattan
221,236,10003,40.7284186,-73.98713956,St Marks Pl & 2 Ave,Manhattan
222,237,10003,40.73047309,-73.98672378,E 11 St & 2 Ave,Manhattan
223,280,10003,40.73331967,-73.99510132,E 10 St & 5 Ave,Manhattan
224,285,10003,40.73454567,-73.99074142,Broadway & E 14 St,Manhattan
225,293,10003,40.73028666,-73.9907647,Lafayette St & E 8 St,Manhattan
226,297,10003,40.734232,-73.986923,E 15 St & 3 Ave,Manhattan
227,300,10003,40.728145,-73.990214,Shevchenko Pl & E 7 St,Manhattan
228,325,10003,40.73624527,-73.98473765,E 19 St & 3 Ave,Manhattan
229,326,10003,40.72953837,-73.98426726,E 11 St & 1 Ave,Manhattan
230,335,10003,40.72903917,-73.99404649,Washington Pl & Broadway,Manhattan
231,357,10003,40.73261787,-73.99158043,E 11 St & Broadway,Manhattan
232,382,10003,40.73492695,-73.99200509,University Pl & E 14 St,Manhattan
233,403,10003,40.72502876,-73.99069656,E 2 St & 2 Ave,Manhattan
234,428,10003,40.72467721,-73.98783413,E 3 St & 1 Ave,Manhattan
235,438,10003,40.72779126,-73.98564945,St Marks Pl & 1 Ave,Manhattan
236,439,10003,40.7262807,-73.98978041,E 4 St & 2 Ave,Manhattan
237,475,10003,40.73524276,-73.98758561,E 16 St & Irving Pl,Manhattan
238,483,10003,40.73223272,-73.98889957,E 12 St & 3 Ave,Manhattan
239,496,10003,40.73726186,-73.99238967,E 16 St & 5 Ave,Manhattan
240,497,10003,40.73704984,-73.99009296,E 17 St & Broadway,Manhattan
241,503,10003,40.73827428,-73.98751968,E 20 St & Park Ave,Manhattan
242,2003,10003,40.733812192,-73.9805442095,1 Ave & E 18 St,Manhattan
243,259,10004,40.70122128,-74.01234218,South St & Whitehall St,Manhattan
244,260,10004,40.70365182,-74.01167797,Broad St & Bridge St,Manhattan
245,304,10004,40.70463334,-74.01361706,Broadway & Battery Pl,Manhattan
246,415,10004,40.7047177,-74.00926027,Pearl St & Hanover Square,Manhattan
247,427,10004,40.701907,-74.013942,Bus Slip & State St,Manhattan
248,534,10004,40.70255065,-74.0127234,Water - Whitehall Plaza,Manhattan
249,2008,10004,40.70569254,-74.01677685,Little West St & 1 Pl,Manhattan
250,265,10002,40.72229346,-73.99147535,Stanton St & Chrystie St,Manhattan
251,291,10002,40.713126,-73.984844,Madison St & Montgomery St,Manhattan
252,295,10002,40.71406667,-73.99293911,Pike St & E Broadway,Manhattan
253,296,10002,40.71413089,-73.9970468,Division St & Bowery,Manhattan
254,307,10002,40.71427487,-73.98990025,Canal St & Rutgers St,Manhattan
255,311,10002,40.7172274,-73.98802084,Norfolk St & Broome St,Manhattan
256,312,10002,40.722055,-73.989111,Allen St & E Houston St,Manhattan
257,331,10002,40.71173107,-73.99193043,Pike St & Monroe St,Manhattan
258,332,10002,40.71219906,-73.97948148,Cherry St,Manhattan
259,340,10002,40.71269042,-73.98776323,Madison St & Clinton St,Manhattan
260,341,10002,40.71782143,-73.97628939,Stanton St & Mangin St,Manhattan
261,342,10002,40.71739973,-73.98016555,Columbia St & Rivington St,Manhattan
262,350,10002,40.71559509,-73.9870295,Clinton St & Grand St,Manhattan
263,356,10002,40.71622644,-73.98261206,Bialystoker Pl & Delancey St,Manhattan
264,361,10002,40.71605866,-73.99190759,Allen St & Hester St,Manhattan
265,400,10002,40.71926081,-73.98178024,Pitt St & Stanton St,Manhattan
266,401,10002,40.72019576,-73.98997825,Allen St & Rivington St,Manhattan
267,408,10002,40.71076228,-73.99400398,Market St & Cherry St,Manhattan
268,410,10002,40.72066442,-73.98517977,Suffolk St & Stanton St,Manhattan
269,412,10002,40.7158155,-73.99422366,Forsyth St & Canal St,Manhattan
270,473,10002,40.72110063,-73.9919254,Rivington St & Chrystie St,Manhattan
271,502,10002,40.714215,-73.981346,Henry St & Grand St,Manhattan
272,531,10002,40.71893904,-73.99266288,Forsyth St & Broome St,Manhattan
273,2009,10002,40.71117444,-73.99682619,Catherine St & Monroe St,Manhattan
274,267,10018,40.75097711,-73.98765428,Broadway & W 36 St,Manhattan
275,362,10018,40.75172632,-73.98753523,Broadway & W 37 St,Manhattan
276,448,10018,40.75660359,-73.9979009,W 37 St & 10 Ave,Manhattan
277,477,10018,40.75640548,-73.9900262,W 41 St & 8 Ave,Manhattan
278,478,10018,40.76030096,-73.99884222,11 Ave & W 41 St,Manhattan
279,485,10018,40.75038009,-73.98338988,W 37 St & 5 Ave,Manhattan
280,488,10018,40.75645824,-73.99372222,W 39 St & 9 Ave,Manhattan
281,514,10018,40.76087502,-74.00277668,12 Ave & W 40 St,Manhattan
282,523,10018,40.75466591,-73.99138152,W 38 St & 8 Ave,Manhattan
283,533,10018,40.75299641,-73.98721619,Broadway & W 39 St,Manhattan
284,282,11211,40.70827295,-73.96834101,Kent Ave & S 11 St,Brooklyn
285,389,11211,40.71044554,-73.96525063,Broadway & Berry St,Brooklyn
286,443,11211,40.70853074,-73.96408963,Bedford Ave & S 9 St,Brooklyn
287,460,11211,40.71285887,-73.96590294,S 4 St & Wythe Ave,Brooklyn
288,471,11211,40.71286844,-73.95698119,Grand St & Havemeyer St,Brooklyn
289,481,11211,40.71260486,-73.96264403,S 3 St & Bedford Ave,Brooklyn
290,532,11211,40.710451,-73.960876,S 5 Pl & S 4 St,Brooklyn
291,539,11211,40.71534825,-73.96024116,Metropolitan Ave & Bedford Ave,Brooklyn
292,2002,11211,40.716887,-73.963198,Wythe Ave & Metropolitan Ave,Brooklyn
293,2005,11211,40.70531194,-73.97100056,Railroad Ave & Kay Ave,Brooklyn
294,3073,11211,40.70691254,-73.95441667,Division Ave & Hooper St,Brooklyn
295,3075,11211,40.70708701,-73.95796783,Division Ave & Marcy Ave,Brooklyn
296,3077,11211,40.70877084,-73.95095259,Stagg St & Union Ave,Brooklyn
297,3078,11211,40.70925562,-73.95982218,Broadway & Roebling St,Brooklyn
298,3079,11211,40.71103537,-73.94714303,Leonard St & Grand St,Brooklyn
299,3080,11211,40.70934,-73.95608,S 4 St & Rodney St,Brooklyn
300,3081,11211,40.711863,-73.944024,Graham Ave & Grand St,Brooklyn
301,3082,11211,40.71167351,-73.95141312,Hope St & Union Ave,Brooklyn
302,3083,11211,40.71247661,-73.94100005,Bushwick Ave & Powers St,Brooklyn
303,3084,11211,40.71348658,-73.94792458,Devoe St & Leonard St,Brooklyn
304,3085,11211,40.71469,-73.95739,Roebling St & N 4 St,Brooklyn
305,3086,11211,40.715143,-73.944507,Graham Ave & Conselyea St,Brooklyn
306,3087,11211,40.71413311,-73.95234386,Metropolitan Ave & Meeker Ave,Brooklyn
307,3088,11211,40.7160751,-73.952029,Union Ave & Jackson St,Brooklyn
308,3089,11211,40.7173184039,-73.9482021332,Leonard St & Meeker Ave,Brooklyn
309,3090,11211,40.71774592,-73.95600096,N 8 St & Driggs Ave,Brooklyn
310,3091,11211,40.71764,-73.94882,Frost St & Meeker St,Brooklyn
311,3092,11211,40.7190095,-73.95852515,Berry St & N 8 St,Brooklyn
312,3093,11211,40.71745169,-73.95850939,N 6 St & Bedford Ave,Brooklyn
313,3094,11211,40.7169811,-73.94485918,Graham Ave & Withers St,Brooklyn
314,3096,11211,40.71924,-73.95242,Union Ave & N 12 St,Brooklyn
315,3103,11211,40.72153267,-73.95782357,N 11 St & Wythe Ave,Brooklyn
316,3104,11211,40.72057658,-73.96150225,Kent Ave & N 7 St,Brooklyn
317,3107,11211,40.72311651,-73.95212324,Bedford Ave & Nassau Ave,Brooklyn
318,327,10282,40.7153379,-74.01658354,Vesey Pl & River Terrace,Manhattan
319,426,10282,40.71754834,-74.01322069,West St & Chambers St,Manhattan
320,344,11216,40.6851443,-73.95380904,Monroe St & Bedford Ave,Brooklyn
321,436,11216,40.68216564,-73.95399026,Hancock St & Bedford Ave,Brooklyn
322,437,11216,40.6809833854,-73.9500479759,Macon St & Nostrand Ave,Brooklyn
323,3041,11216,40.67890679,-73.94142771,Kingston Ave & Herkimer St,Brooklyn
324,3044,11216,40.6800105,-73.938475,Albany Ave & Fulton St,Brooklyn
325,3046,11216,40.682601,-73.938037,Marcus Garvey Blvd & Macon St,Brooklyn
326,3047,11216,40.6823687,-73.944118,Halsey St & Tompkins Ave,Brooklyn
327,3048,11216,40.68402,-73.94977,Putnam Ave & Nostrand Ave,Brooklyn
328,3053,11216,40.6900815,-73.947915,Marcy Ave & Lafayette Ave,Brooklyn
329,3055,11216,40.6883337,-73.950916,Greene Ave & Nostrand Ave,Brooklyn
330,3056,11216,40.69072549,-73.95133465,Kosciuszko St & Nostrand Ave,Brooklyn
331,3229,11216,40.6806176846,-73.946249485,Marcy Ave & MacDonough St,Brooklyn
332,359,10167,40.75510267,-73.97498696,E 47 St & Park Ave,Manhattan
333,363,10280,40.70834698,-74.01713445,West Thames St,Manhattan
334,3002,10280,40.711512,-74.015756,South End Ave & Liberty St,Manhattan
335,379,10001,40.749156,-73.9916,W 31 St & 7 Ave,Manhattan
336,388,10001,40.749717753,-74.002950346,W 26 St & 10 Ave,Manhattan
337,442,10001,40.746647,-73.993915,W 27 St & 7 Ave,Manhattan
338,458,10001,40.751396,-74.005226,11 Ave & W 27 St,Manhattan
339,486,10001,40.7462009,-73.98855723,Broadway & W 29 St,Manhattan
340,489,10001,40.75066386,-74.00176802,10 Ave & W 28 St,Manhattan
341,492,10001,40.75019995,-73.99093085,W 33 St & 7 Ave,Manhattan
342,494,10001,40.74734825,-73.99723551,W 26 St & 8 Ave,Manhattan
343,498,10001,40.74854862,-73.98808416,Broadway & W 32 St,Manhattan
344,505,10001,40.74901271,-73.98848395,6 Ave & W 33 St,Manhattan
345,512,10001,40.7500727,-73.99839279,W 29 St & 9 Ave,Manhattan
346,525,10001,40.75594159,-74.0021163,W 34 St & 11 Ave,Manhattan
347,386,10278,40.71494807,-74.00234482,Centre St & Worth St,Manhattan
348,465,10036,40.75513557,-73.98658032,Broadway & W 41 St,Manhattan
349,479,10036,40.76019252,-73.9912551,9 Ave & W 45 St,Manhattan
350,484,10036,40.75500254,-73.98014437,W 44 St & 5 Ave,Manhattan
351,493,10036,40.7568001,-73.98291153,W 45 St & 6 Ave,Manhattan
352,495,10036,40.76269882,-73.99301222,W 47 St & 10 Ave,Manhattan
353,508,10036,40.76341379,-73.99667444,W 46 St & 11 Ave,Manhattan
354,515,10036,40.76009437,-73.99461843,W 43 St & 10 Ave,Manhattan
355,524,10036,40.75527307,-73.98316936,W 43 St & 6 Ave,Manhattan
356,529,10036,40.7575699,-73.99098507,W 42 St & 8 Ave,Manhattan
357,2021,10036,40.75929124,-73.98859651,W 45 St & 8 Ave,Manhattan
358,490,10199,40.751551,-73.993934,8 Ave & W 33 St,Manhattan
359,499,10023,40.76915505,-73.98191841,Broadway & W 60 St,Manhattan
360,3158,10023,40.77163851,-73.98261428,W 63 St & Broadway,Manhattan
361,3159,10023,40.77492513,-73.98266566,W 67 St & Broadway,Manhattan
362,3161,10023,40.7801839724,-73.9772853255,W 76 St & Columbus Ave,Manhattan
363,3163,10023,40.7734066,-73.97782542,Central Park West & W 68 St,Manhattan
364,3164,10023,40.7770575,-73.97898475,Columbus Ave & W 72 St,Manhattan
365,3165,10023,40.7757937668,-73.9762057364,Central Park West & W 72 St,Manhattan
366,3167,10023,40.7796680901,-73.9809304476,Amsterdam Ave & W 73 St,Manhattan
367,3172,10023,40.7785669,-73.97754961,W 74 St & Columbus Ave,Manhattan
368,3175,10023,40.77748046,-73.98288594,W 70 St & Amsterdam Ave,Manhattan
369,3176,10023,40.77452835,-73.98753759,W 64 St & West End Ave,Manhattan
370,517,10168,40.751581,-73.97791,Pershing Square South,Manhattan
371,519,10168,40.751873,-73.977706,Pershing Square North,Manhattan
372,520,10103,40.75992262,-73.97648516,W 52 St & 5 Ave,Manhattan
373,521,10119,40.7509673487,-73.9944420755,8 Ave & W 31 St,Manhattan
374,2022,10021,40.759107,-73.959223,E 60 St & York Ave,Manhattan
375,3135,10021,40.77112927,-73.95772297,E 75 St & 3 Ave,Manhattan
376,3137,10021,40.77282817,-73.96685276,5 Ave & E 73 St,Manhattan
377,3139,10021,40.7711828754,-73.9640942216,E 72 St & Park Ave,Manhattan
378,3153,10021,40.7681754674,-73.9591026306,E 71 St & 2 Ave,Manhattan
379,3156,10021,40.76663814,-73.95348296,E 72 St & York Ave,Manhattan
380,3042,11213,40.6794268,-73.9298911,Fulton St & Utica Ave,Brooklyn
381,3043,11233,40.6814598,-73.934903,Lewis Ave & Decatur St,Brooklyn
382,3050,11221,40.6851532,-73.94111,Putnam Ave & Throop Ave,Brooklyn
383,3052,11221,40.686312,-73.935775,Lewis Ave & Madison St,Brooklyn
384,3054,11221,40.6894932,-73.942061,Greene Ave & Throop Ave,Brooklyn
385,3057,11221,40.69128258,-73.9452416,Kosciuszko St & Tompkins Ave,Brooklyn
386,3058,11221,40.69237074,-73.93705428,Lewis Ave & Kosciuszko St,Brooklyn
387,3059,11206,40.6933982,-73.939877,Pulaski St & Marcus Garvey Blvd,Brooklyn
388,3060,11206,40.69425403,-73.94626915,Willoughby Ave & Tompkins Ave,Brooklyn
389,3061,11206,40.69622937,-73.94371094,Throop Ave & Myrtle Ave,Brooklyn
390,3062,11206,40.69539817,-73.94954908,Myrtle Ave & Marcy Ave,Brooklyn
391,3064,11206,40.69681963,-73.93756926,Myrtle Ave & Lewis Ave,Brooklyn
392,3065,11206,40.70029511,-73.95032283,Union Ave & Wallabout St,Brooklyn
393,3066,11206,40.69957608,-73.94708417,Tompkins Ave & Hopkins St,Brooklyn
394,3067,11206,40.7016657,-73.9437303,Broadway & Whipple St,Brooklyn
395,3068,11206,40.7031724,-73.940636,Humboldt St & Varet St,Brooklyn
396,3069,11206,40.70411791,-73.94818595,Lorimer St & Broadway,Brooklyn
397,3070,11206,40.70510918,-73.94407279,McKibbin St & Manhattan Ave,Brooklyn
398,3071,11206,40.70538077,-73.94976519,Boerum St & Broadway,Brooklyn
399,3072,11206,40.70583339,-73.94644578,Leonard St & Boerum St,Brooklyn
400,3074,11206,40.70767788,-73.94016171,Montrose Ave & Bushwick Ave,Brooklyn
401,3076,11206,40.70870368,-73.9448625,Scholes St & Manhattan Ave,Brooklyn
402,3179,11206,40.698617,-73.941342,Park Ave & Marcus Garvey Blvd,Brooklyn
403,3095,11222,40.71929301,-73.94500379,Graham Ave & Herbert St,Brooklyn
404,3097,11222,40.71921585,-73.9424469,N Henry St & Richardson St,Brooklyn
405,3098,11222,40.71928,-73.94861,Leonard St & Bayard St,Brooklyn
406,3099,11222,40.7215224034,-73.948982656,Leonard St & Manhattan Ave,Brooklyn
407,3101,11222,40.72079821,-73.95484712,N 12 St & Bedford Ave,Brooklyn
408,3102,11222,40.72179134,-73.9504154,Driggs Ave & Lorimer St,Brooklyn
409,3105,11222,40.724055,-73.955736,N 15 St & Wythe Ave,Brooklyn
410,3106,11222,40.72325,-73.94308,Driggs Ave & N Henry St,Brooklyn
411,3108,11222,40.72557,-73.94434,Nassau Ave & Russell St,Brooklyn
412,3109,11222,40.72606,-73.95621,Banker St & Meserole Ave,Brooklyn
413,3110,11222,40.72708584,-73.95299117,Meserole Ave & Manhattan Ave,Brooklyn
414,3111,11222,40.7258483,-73.95064893,Norman Ave & Leonard St,Brooklyn
415,3112,11222,40.72906,-73.95779,Milton St & Franklin St,Brooklyn
416,3113,11222,40.73026,-73.95394,Greenpoint Ave & Manhattan Ave,Brooklyn
417,3114,11222,40.73165141,-73.96161892,India St & East River,Brooklyn
418,3115,11222,40.73232194,-73.9550858,India St & Manhattan Ave,Brooklyn
419,3116,11222,40.73266,-73.95826,Huron St & Franklin St,Brooklyn
420,3117,11222,40.73564,-73.95866,Franklin St & Dupont St,Brooklyn
421,3118,11222,40.73555,-73.95284,McGuinness Blvd & Eagle St,Brooklyn
422,3119,11101,40.74232744,-73.95411749,Vernon Blvd & 50 Ave,Queens
423,3120,11101,40.74161,-73.96044,Center BlvdÂ & Borden Ave,Queens
424,3121,11101,40.74524768,-73.94733276,Jackson Ave & 46 Rd,Queens
425,3122,11101,40.7443632871,-73.955873251,48 Ave & 5 St,Queens
426,3123,11101,40.74469738,-73.93540375,31 St & Thomson Ave,Queens
427,3124,11101,40.74731,-73.95451,46 Ave & 5 St,Queens
428,3125,11101,40.74708586,-73.94977234,45 Rd & 11 St,Queens
429,3126,11101,40.74718234,-73.9432635,44 Dr & Jackson Ave,Queens
430,3127,11101,40.74966,-73.9521,9 St & 44 Rd,Queens
431,3128,11101,40.75052534,-73.94594845,21 St & 43 Ave,Queens
432,3129,11101,40.75110165,-73.94073717,Queens Plaza North & Crescent St,Queens
433,3221,11101,40.743,-73.93561,47 Ave & 31 St,Queens
434,3237,11101,40.7538334344,-73.9426767826,21 St & 41 Ave,Queens
435,3144,10028,40.77677702,-73.9590097,E 81 St & Park Ave,Manhattan
436,3145,10028,40.77862688,-73.95772073,E 84 St & Park Ave,Manhattan
437,3146,10028,40.77573034,-73.9567526,E 81 St & 3 Ave,Manhattan
438,3147,10028,40.77801203,-73.95407149,E 85 St & 3 Ave,Manhattan
439,3148,10028,40.77565541,-73.95068615,E 84 St & 1 Ave,Manhattan
440,3150,10028,40.77536905,-73.94803392,E 85 St & York Ave,Manhattan
441,3151,10028,40.7728384,-73.94989233,E 81 St & York Ave,Manhattan
442,3157,10128,40.77518615,-73.94446054,East End Ave & E 86 St,Manhattan
443,3160,10024,40.77896784,-73.97374737,Central Park West & W 76 St,Manhattan
444,3162,10024,40.78339981,-73.98093133,W 78 St & Broadway,Manhattan
445,3166,10024,40.7805779901,-73.9856243134,Riverside Dr & W 72 St,Manhattan
446,3168,10024,40.78472675,-73.96961715,Central Park West & W 85 St,Manhattan
447,3169,10024,40.78720869,-73.98128127,Riverside Dr & W 82 St,Manhattan
448,3171,10024,40.78524672,-73.97667321,Amsterdam Ave & W 82 St,Manhattan
449,3177,10024,40.7867947,-73.977112,W 84 St & Broadway,Manhattan
450,3178,10024,40.78414472,-73.98362492,Riverside Dr & W 78 St,Manhattan
451,3226,10024,40.78275,-73.97137,W 82 St & Central Park West,Manhattan
452,3173,10069,40.7775070275,-73.9888858795,Riverside Blvd & W 67 St,Manhattan
